{
  "type": "FeatureCollection",
  "features": [
    {
      "type": "Feature",
      "properties": {
        "norad_id": 30545,
        "name": "FENGYUN 1C DEB",
        "group": "fengyun-1c-debris",
        "lat": 2.2078227686076985,
        "lon": -169.64089777010656,
        "alt_km": 875.2716900961532,
        "timestamp": "2025-12-03T04:52:29.914295+00:00",
        "meta_object_name": "FENGYUN 1C DEB",
        "meta_object_id": "1999-025AKK",
        "meta_epoch": "2025-12-02T12:30:10.010016",
        "meta_mean_motion": 13.20769856,
        "meta_eccentricity": 0.04729004,
        "meta_inclination": 99.0011,
        "meta_ra_of_asc_node": 190.1208,
        "meta_arg_of_pericenter": 35.6122,
        "meta_mean_anomaly": 327.5604,
        "meta_ephemeris_type": 0,
        "meta_classification_type": "U",
        "meta_norad_cat_id": 30545,
        "meta_element_set_no": 999,
        "meta_rev_at_epoch": 90795,
        "meta_bstar": 0.00063912864,
        "meta_mean_motion_dot": 4.33e-06,
        "meta_mean_motion_ddot": 0,
        "tle_line1": "1 30545U 99025AKK 25336.52094919  .00000433  00000+0  63913-3 0  9994",
        "tle_line2": "2 30545  99.0011 190.1208 0472900  35.6122 327.5604 13.20769856907955"
      },
      "geometry": {
        "type": "Point",
        "coordinates": [
          -169.64089777010656,
          2.2078227686076985
        ]
      }
    },
    {
      "type": "Feature",
      "properties": {
        "norad_id": 30546,
        "name": "FENGYUN 1C DEB",
        "group": "fengyun-1c-debris",
        "lat": -4.260463155771324,
        "lon": 11.394534561329628,
        "alt_km": 547.3733219699461,
        "timestamp": "2025-12-03T04:52:29.914305+00:00",
        "meta_object_name": "FENGYUN 1C DEB",
        "meta_object_id": "1999-025AKL",
        "meta_epoch": "2025-12-02T20:01:23.061216",
        "meta_mean_motion": 14.86883677,
        "meta_eccentricity": 0.0092437,
        "meta_inclination": 98.9091,
        "meta_ra_of_asc_node": 191.6508,
        "meta_arg_of_pericenter": 194.2781,
        "meta_mean_anomaly": 176.9826,
        "meta_ephemeris_type": 0,
        "meta_classification_type": "U",
        "meta_norad_cat_id": 30546,
        "meta_element_set_no": 999,
        "meta_rev_at_epoch": 310,
        "meta_bstar": 0.0012278,
        "meta_mean_motion_dot": 0.00011798,
        "meta_mean_motion_ddot": 0,
        "tle_line1": "1 30546U 99025AKL 25336.83429469  .00011798  00000+0  12278-2 0  9994",
        "tle_line2": "2 30546  98.9091 191.6508 0092437 194.2781 176.9826 14.86883677  3104"
      },
      "geometry": {
        "type": "Point",
        "coordinates": [
          11.394534561329628,
          -4.260463155771324
        ]
      }
    },
    {
      "type": "Feature",
      "properties": {
        "norad_id": 30547,
        "name": "FENGYUN 1C DEB",
        "group": "fengyun-1c-debris",
        "lat": 32.17982793829604,
        "lon": 5.518774481798213,
        "alt_km": 773.5200290380526,
        "timestamp": "2025-12-03T04:52:29.914315+00:00",
        "meta_object_name": "FENGYUN 1C DEB",
        "meta_object_id": "1999-025AKM",
        "meta_epoch": "2025-12-02T19:55:43.572288",
        "meta_mean_motion": 14.37720036,
        "meta_eccentricity": 0.0095015,
        "meta_inclination": 98.9027,
        "meta_ra_of_asc_node": 179.4725,
        "meta_arg_of_pericenter": 246.8854,
        "meta_mean_anomaly": 133.2546,
        "meta_ephemeris_type": 0,
        "meta_classification_type": "U",
        "meta_norad_cat_id": 30547,
        "meta_element_set_no": 999,
        "meta_rev_at_epoch": 98580,
        "meta_bstar": 0.00039259,
        "meta_mean_motion_dot": 1.194e-05,
        "meta_mean_motion_ddot": 0,
        "tle_line1": "1 30547U 99025AKM 25336.83036542  .00001194  00000+0  39259-3 0  9999",
        "tle_line2": "2 30547  98.9027 179.4725 0095015 246.8854 133.2546 14.37720036985805"
      },
      "geometry": {
        "type": "Point",
        "coordinates": [
          5.518774481798213,
          32.17982793829604
        ]
      }
    },
    {
      "type": "Feature",
      "properties": {
        "norad_id": 30548,
        "name": "FENGYUN 1C DEB",
        "group": "fengyun-1c-debris",
        "lat": 57.10656668204264,
        "lon": -141.64814149290646,
        "alt_km": 769.1501147155059,
        "timestamp": "2025-12-03T04:52:29.914326+00:00",
        "meta_object_name": "FENGYUN 1C DEB",
        "meta_object_id": "1999-025AKN",
        "meta_epoch": "2025-12-02T12:21:13.252608",
        "meta_mean_motion": 14.26712418,
        "meta_eccentricity": 0.00697222,
        "meta_inclination": 99.6819,
        "meta_ra_of_asc_node": 232.896,
        "meta_arg_of_pericenter": 4.095,
        "meta_mean_anomaly": 119.973,
        "meta_ephemeris_type": 0,
        "meta_classification_type": "U",
        "meta_norad_cat_id": 30548,
        "meta_element_set_no": 999,
        "meta_rev_at_epoch": 13949,
        "meta_bstar": 0.0026062445,
        "meta_mean_motion_dot": 6.423e-05,
        "meta_mean_motion_ddot": 0,
        "tle_line1": "1 30548U 99025AKN 25336.51473672  .00006423  00000+0  26062-2 0  9991",
        "tle_line2": "2 30548  99.6819 232.8960 0069722   4.0950 119.9730 14.26712418139490"
      },
      "geometry": {
        "type": "Point",
        "coordinates": [
          -141.64814149290646,
          57.10656668204264
        ]
      }
    },
    {
      "type": "Feature",
      "properties": {
        "norad_id": 30549,
        "name": "FENGYUN 1C DEB",
        "group": "fengyun-1c-debris",
        "lat": 46.679303313832,
        "lon": -72.56447779077696,
        "alt_km": 1076.8946727819703,
        "timestamp": "2025-12-03T04:52:29.914336+00:00",
        "meta_object_name": "FENGYUN 1C DEB",
        "meta_object_id": "1999-025AKP",
        "meta_epoch": "2025-11-26T19:24:29.426688",
        "meta_mean_motion": 13.98533531,
        "meta_eccentricity": 0.028808,
        "meta_inclination": 98.4781,
        "meta_ra_of_asc_node": 92.4127,
        "meta_arg_of_pericenter": 301.733,
        "meta_mean_anomaly": 55.6053,
        "meta_ephemeris_type": 0,
        "meta_classification_type": "U",
        "meta_norad_cat_id": 30549,
        "meta_element_set_no": 999,
        "meta_rev_at_epoch": 95071,
        "meta_bstar": 0.0016839876,
        "meta_mean_motion_dot": 3.4e-05,
        "meta_mean_motion_ddot": 0,
        "tle_line1": "1 30549U 99025AKP 25330.80867392  .00003400  00000+0  16840-2 0  9999",
        "tle_line2": "2 30549  98.4781  92.4127 0288080 301.7330  55.6053 13.98533531950715"
      },
      "geometry": {
        "type": "Point",
        "coordinates": [
          -72.56447779077696,
          46.679303313832
        ]
      }
    },
    {
      "type": "Feature",
      "properties": {
        "norad_id": 30550,
        "name": "FENGYUN 1C DEB",
        "group": "fengyun-1c-debris",
        "lat": 13.519593131207966,
        "lon": 54.75294691937163,
        "alt_km": 976.5806979448162,
        "timestamp": "2025-12-03T04:52:29.914346+00:00",
        "meta_object_name": "FENGYUN 1C DEB",
        "meta_object_id": "1999-025AKQ",
        "meta_epoch": "2025-12-02T06:25:40.938816",
        "meta_mean_motion": 14.02235385,
        "meta_eccentricity": 0.0133994,
        "meta_inclination": 99.0533,
        "meta_ra_of_asc_node": 231.6269,
        "meta_arg_of_pericenter": 326.0564,
        "meta_mean_anomaly": 161.927,
        "meta_ephemeris_type": 0,
        "meta_classification_type": "U",
        "meta_norad_cat_id": 30550,
        "meta_element_set_no": 999,
        "meta_rev_at_epoch": 95248,
        "meta_bstar": 0.0035404,
        "meta_mean_motion_dot": 5.825e-05,
        "meta_mean_motion_ddot": 0,
        "tle_line1": "1 30550U 99025AKQ 25336.26783494  .00005825  00000+0  35404-2 0  9997",
        "tle_line2": "2 30550  99.0533 231.6269 0133994 326.0564 161.9270 14.02235385952485"
      },
      "geometry": {
        "type": "Point",
        "coordinates": [
          54.75294691937163,
          13.519593131207966
        ]
      }
    },
    {
      "type": "Feature",
      "properties": {
        "norad_id": 30552,
        "name": "FENGYUN 1C DEB",
        "group": "fengyun-1c-debris",
        "lat": -4.955620314808924,
        "lon": -72.43650956069284,
        "alt_km": 715.557821025348,
        "timestamp": "2025-12-03T04:52:29.914357+00:00",
        "meta_object_name": "FENGYUN 1C DEB",
        "meta_object_id": "1999-025AKS",
        "meta_epoch": "2025-12-02T08:12:40.902048",
        "meta_mean_motion": 14.54300423,
        "meta_eccentricity": 0.00141637,
        "meta_inclination": 98.8343,
        "meta_ra_of_asc_node": 107.4277,
        "meta_arg_of_pericenter": 280.0643,
        "meta_mean_anomaly": 79.8953,
        "meta_ephemeris_type": 0,
        "meta_classification_type": "U",
        "meta_norad_cat_id": 30552,
        "meta_element_set_no": 999,
        "meta_rev_at_epoch": 97501,
        "meta_bstar": 0.0039430765,
        "meta_mean_motion_dot": 0.00016739,
        "meta_mean_motion_ddot": 0,
        "tle_line1": "1 30552U 99025AKS 25336.34214007  .00016739  00000+0  39431-2 0  9997",
        "tle_line2": "2 30552  98.8343 107.4277 0014163 280.0643  79.8953 14.54300423975017"
      },
      "geometry": {
        "type": "Point",
        "coordinates": [
          -72.43650956069284,
          -4.955620314808924
        ]
      }
    }
  ]
}